KUIPER-00061            
1 64521U 25134X   25290.00002315  .00025016  00000+0  33179-2 0  9990
2 64521  51.9001 143.4707 0005891 153.3891 211.0547 14.79673157  4795
KUIPER-00062            
1 64522U 25134Y   25289.33912380  .00004641  00000+0  57009-3 0  9997
2 64522  51.8962 153.3618 0007836 175.2078 184.8963 14.84643756 18672
KUIPER-00063            
1 64523U 25134Z   25289.37423910  .00004268  00000+0  59047-3 0  9997
2 64523  51.9003 156.1637 0004380 112.0903 248.0525 14.79796809 18634
KUIPER-00064            
1 64524U 25134AA  25289.36087712  .00004856  00000+0  67411-3 0  9990
2 64524  51.9008 153.4706 0005451 229.0631 130.9860 14.79386695 18677
KUIPER-00065            
1 64525U 25134AB  25289.33533900  .00001703  00000+0  25259-3 0  9995
2 64525  51.9016 158.5356 0011387 162.8787 197.2562 14.79914710 18585
KUIPER-00066            
1 64526U 25134AC  25288.89191263  .00019995  00000+0  97599-3 0  9996
2 64526  51.8870 146.7686 0004596 172.2772 187.8278 15.18258467 18720
KUIPER-00069            
1 64816U 25151A   25290.00002315 -.00620151  00000+0 -31150-1 0  9995
2 64816  51.8839 201.0338 0008209 140.4384 222.7945 15.19226828  5809
KUIPER-00070            
1 64817U 25151B   25289.20697461  .00006359  00000+0  86162-3 0  9999
2 64817  51.8980 224.4677 0010146 130.4173 229.7676 14.79949981 15020
