<?xml version="1.0" encoding="UTF-8"?>
<ndm xmlns:xsi="http://www.w3.org/2001/XMLSchema-instance" xsi:noNamespaceSchemaLocation="https://sanaregistry.org/r/ndmxml_unqualified/ndmxml-2.0.0-master-2.0.xsd">
<omm id="CCSDS_OMM_VERS" version="2.0">
<header><CREATION_DATE/><ORIGINATOR/></header><body><segment><metadata><OBJECT_NAME>KUIPER-00061</OBJECT_NAME><OBJECT_ID>2025-134X</OBJECT_ID><CENTER_NAME>EARTH</CENTER_NAME><REF_FRAME>TEME</REF_FRAME><TIME_SYSTEM>UTC</TIME_SYSTEM><MEAN_ELEMENT_THEORY>SGP4</MEAN_ELEMENT_THEORY></metadata><data><meanElements><EPOCH>2025-10-17T00:00:02.000160</EPOCH><MEAN_MOTION>14.79673157</MEAN_MOTION><ECCENTRICITY>.00058914</ECCENTRICITY><INCLINATION>51.9001</INCLINATION><RA_OF_ASC_NODE>143.4707</RA_OF_ASC_NODE><ARG_OF_PERICENTER>153.3891</ARG_OF_PERICENTER><MEAN_ANOMALY>211.0547</MEAN_ANOMALY></meanElements><tleParameters><EPHEMERIS_TYPE>0</EPHEMERIS_TYPE><CLASSIFICATION_TYPE>U</CLASSIFICATION_TYPE><NORAD_CAT_ID>64521</NORAD_CAT_ID><ELEMENT_SET_NO>999</ELEMENT_SET_NO><REV_AT_EPOCH>479</REV_AT_EPOCH><BSTAR>.331787E-2</BSTAR><MEAN_MOTION_DOT>.25016E-3</MEAN_MOTION_DOT><MEAN_MOTION_DDOT>0</MEAN_MOTION_DDOT></tleParameters></data></segment></body></omm>
<omm id="CCSDS_OMM_VERS" version="2.0">
<header><CREATION_DATE/><ORIGINATOR/></header><body><segment><metadata><OBJECT_NAME>KUIPER-00062</OBJECT_NAME><OBJECT_ID>2025-134Y</OBJECT_ID><CENTER_NAME>EARTH</CENTER_NAME><REF_FRAME>TEME</REF_FRAME><TIME_SYSTEM>UTC</TIME_SYSTEM><MEAN_ELEMENT_THEORY>SGP4</MEAN_ELEMENT_THEORY></metadata><data><meanElements><EPOCH>2025-10-16T08:08:20.296320</EPOCH><MEAN_MOTION>14.84643756</MEAN_MOTION><ECCENTRICITY>.00078369</ECCENTRICITY><INCLINATION>51.8962</INCLINATION><RA_OF_ASC_NODE>153.3618</RA_OF_ASC_NODE><ARG_OF_PERICENTER>175.2078</ARG_OF_PERICENTER><MEAN_ANOMALY>184.8963</MEAN_ANOMALY></meanElements><tleParameters><EPHEMERIS_TYPE>0</EPHEMERIS_TYPE><CLASSIFICATION_TYPE>U</CLASSIFICATION_TYPE><NORAD_CAT_ID>64522</NORAD_CAT_ID><ELEMENT_SET_NO>999</ELEMENT_SET_NO><REV_AT_EPOCH>1867</REV_AT_EPOCH><BSTAR>.57009018E-3</BSTAR><MEAN_MOTION_DOT>.4641E-4</MEAN_MOTION_DOT><MEAN_MOTION_DDOT>0</MEAN_MOTION_DDOT></tleParameters></data></segment></body></omm>
<omm id="CCSDS_OMM_VERS" version="2.0">
<header><CREATION_DATE/><ORIGINATOR/></header><body><segment><metadata><OBJECT_NAME>KUIPER-00063</OBJECT_NAME><OBJECT_ID>2025-134Z</OBJECT_ID><CENTER_NAME>EARTH</CENTER_NAME><REF_FRAME>TEME</REF_FRAME><TIME_SYSTEM>UTC</TIME_SYSTEM><MEAN_ELEMENT_THEORY>SGP4</MEAN_ELEMENT_THEORY></metadata><data><meanElements><EPOCH>2025-10-16T08:58:54.258240</EPOCH><MEAN_MOTION>14.79796809</MEAN_MOTION><ECCENTRICITY>.00043801</ECCENTRICITY><INCLINATION>51.9003</INCLINATION><RA_OF_ASC_NODE>156.1637</RA_OF_ASC_NODE><ARG_OF_PERICENTER>112.0903</ARG_OF_PERICENTER><MEAN_ANOMALY>248.0525</MEAN_ANOMALY></meanElements><tleParameters><EPHEMERIS_TYPE>0</EPHEMERIS_TYPE><CLASSIFICATION_TYPE>U</CLASSIFICATION_TYPE><NORAD_CAT_ID>64523</NORAD_CAT_ID><ELEMENT_SET_NO>999</ELEMENT_SET_NO><REV_AT_EPOCH>1863</REV_AT_EPOCH><BSTAR>.59047183E-3</BSTAR><MEAN_MOTION_DOT>.4268E-4</MEAN_MOTION_DOT><MEAN_MOTION_DDOT>0</MEAN_MOTION_DDOT></tleParameters></data></segment></body></omm>
<omm id="CCSDS_OMM_VERS" version="2.0">
<header><CREATION_DATE/><ORIGINATOR/></header><body><segment><metadata><OBJECT_NAME>KUIPER-00064</OBJECT_NAME><OBJECT_ID>2025-134AA</OBJECT_ID><CENTER_NAME>EARTH</CENTER_NAME><REF_FRAME>TEME</REF_FRAME><TIME_SYSTEM>UTC</TIME_SYSTEM><MEAN_ELEMENT_THEORY>SGP4</MEAN_ELEMENT_THEORY></metadata><data><meanElements><EPOCH>2025-10-16T08:39:39.783168</EPOCH><MEAN_MOTION>14.79386695</MEAN_MOTION><ECCENTRICITY>.00054519</ECCENTRICITY><INCLINATION>51.9008</INCLINATION><RA_OF_ASC_NODE>153.4706</RA_OF_ASC_NODE><ARG_OF_PERICENTER>229.0631</ARG_OF_PERICENTER><MEAN_ANOMALY>130.9860</MEAN_ANOMALY></meanElements><tleParameters><EPHEMERIS_TYPE>0</EPHEMERIS_TYPE><CLASSIFICATION_TYPE>U</CLASSIFICATION_TYPE><NORAD_CAT_ID>64524</NORAD_CAT_ID><ELEMENT_SET_NO>999</ELEMENT_SET_NO><REV_AT_EPOCH>1867</REV_AT_EPOCH><BSTAR>.6741143E-3</BSTAR><MEAN_MOTION_DOT>.4856E-4</MEAN_MOTION_DOT><MEAN_MOTION_DDOT>0</MEAN_MOTION_DDOT></tleParameters></data></segment></body></omm>
<omm id="CCSDS_OMM_VERS" version="2.0">
<header><CREATION_DATE/><ORIGINATOR/></header><body><segment><metadata><OBJECT_NAME>KUIPER-00065</OBJECT_NAME><OBJECT_ID>2025-134AB</OBJECT_ID><CENTER_NAME>EARTH</CENTER_NAME><REF_FRAME>TEME</REF_FRAME><TIME_SYSTEM>UTC</TIME_SYSTEM><MEAN_ELEMENT_THEORY>SGP4</MEAN_ELEMENT_THEORY></metadata><data><meanElements><EPOCH>2025-10-16T08:02:53.289600</EPOCH><MEAN_MOTION>14.79914710</MEAN_MOTION><ECCENTRICITY>.0011387</ECCENTRICITY><INCLINATION>51.9016</INCLINATION><RA_OF_ASC_NODE>158.5356</RA_OF_ASC_NODE><ARG_OF_PERICENTER>162.8787</ARG_OF_PERICENTER><MEAN_ANOMALY>197.2562</MEAN_ANOMALY></meanElements><tleParameters><EPHEMERIS_TYPE>0</EPHEMERIS_TYPE><CLASSIFICATION_TYPE>U</CLASSIFICATION_TYPE><NORAD_CAT_ID>64525</NORAD_CAT_ID><ELEMENT_SET_NO>999</ELEMENT_SET_NO><REV_AT_EPOCH>1858</REV_AT_EPOCH><BSTAR>.25259115E-3</BSTAR><MEAN_MOTION_DOT>.1703E-4</MEAN_MOTION_DOT><MEAN_MOTION_DDOT>0</MEAN_MOTION_DDOT></tleParameters></data></segment></body></omm>
<omm id="CCSDS_OMM_VERS" version="2.0">
<header><CREATION_DATE/><ORIGINATOR/></header><body><segment><metadata><OBJECT_NAME>KUIPER-00066</OBJECT_NAME><OBJECT_ID>2025-134AC</OBJECT_ID><CENTER_NAME>EARTH</CENTER_NAME><REF_FRAME>TEME</REF_FRAME><TIME_SYSTEM>UTC</TIME_SYSTEM><MEAN_ELEMENT_THEORY>SGP4</MEAN_ELEMENT_THEORY></metadata><data><meanElements><EPOCH>2025-10-15T21:24:21.251232</EPOCH><MEAN_MOTION>15.18258467</MEAN_MOTION><ECCENTRICITY>.00045967</ECCENTRICITY><INCLINATION>51.8870</INCLINATION><RA_OF_ASC_NODE>146.7686</RA_OF_ASC_NODE><ARG_OF_PERICENTER>172.2772</ARG_OF_PERICENTER><MEAN_ANOMALY>187.8278</MEAN_ANOMALY></meanElements><tleParameters><EPHEMERIS_TYPE>0</EPHEMERIS_TYPE><CLASSIFICATION_TYPE>U</CLASSIFICATION_TYPE><NORAD_CAT_ID>64526</NORAD_CAT_ID><ELEMENT_SET_NO>999</ELEMENT_SET_NO><REV_AT_EPOCH>1872</REV_AT_EPOCH><BSTAR>.97598568E-3</BSTAR><MEAN_MOTION_DOT>.19995E-3</MEAN_MOTION_DOT><MEAN_MOTION_DDOT>0</MEAN_MOTION_DDOT></tleParameters></data></segment></body></omm>
<omm id="CCSDS_OMM_VERS" version="2.0">
<header><CREATION_DATE/><ORIGINATOR/></header><body><segment><metadata><OBJECT_NAME>KUIPER-00069</OBJECT_NAME><OBJECT_ID>2025-151A</OBJECT_ID><CENTER_NAME>EARTH</CENTER_NAME><REF_FRAME>TEME</REF_FRAME><TIME_SYSTEM>UTC</TIME_SYSTEM><MEAN_ELEMENT_THEORY>SGP4</MEAN_ELEMENT_THEORY></metadata><data><meanElements><EPOCH>2025-10-17T00:00:02.000160</EPOCH><MEAN_MOTION>15.19226828</MEAN_MOTION><ECCENTRICITY>.00082096</ECCENTRICITY><INCLINATION>51.8839</INCLINATION><RA_OF_ASC_NODE>201.0338</RA_OF_ASC_NODE><ARG_OF_PERICENTER>140.4384</ARG_OF_PERICENTER><MEAN_ANOMALY>222.7945</MEAN_ANOMALY></meanElements><tleParameters><EPHEMERIS_TYPE>0</EPHEMERIS_TYPE><CLASSIFICATION_TYPE>U</CLASSIFICATION_TYPE><NORAD_CAT_ID>64816</NORAD_CAT_ID><ELEMENT_SET_NO>999</ELEMENT_SET_NO><REV_AT_EPOCH>580</REV_AT_EPOCH><BSTAR>-.31149525E-1</BSTAR><MEAN_MOTION_DOT>-.620151E-2</MEAN_MOTION_DOT><MEAN_MOTION_DDOT>0</MEAN_MOTION_DDOT></tleParameters></data></segment></body></omm>
<omm id="CCSDS_OMM_VERS" version="2.0">
<header><CREATION_DATE/><ORIGINATOR/></header><body><segment><metadata><OBJECT_NAME>KUIPER-00070</OBJECT_NAME><OBJECT_ID>2025-151B</OBJECT_ID><CENTER_NAME>EARTH</CENTER_NAME><REF_FRAME>TEME</REF_FRAME><TIME_SYSTEM>UTC</TIME_SYSTEM><MEAN_ELEMENT_THEORY>SGP4</MEAN_ELEMENT_THEORY></metadata><data><meanElements><EPOCH>2025-10-16T04:58:02.606304</EPOCH><MEAN_MOTION>14.79949981</MEAN_MOTION><ECCENTRICITY>.00101467</ECCENTRICITY><INCLINATION>51.8980</INCLINATION><RA_OF_ASC_NODE>224.4677</RA_OF_ASC_NODE><ARG_OF_PERICENTER>130.4173</ARG_OF_PERICENTER><MEAN_ANOMALY>229.7676</MEAN_ANOMALY></meanElements><tleParameters><EPHEMERIS_TYPE>0</EPHEMERIS_TYPE><CLASSIFICATION_TYPE>U</CLASSIFICATION_TYPE><NORAD_CAT_ID>64817</NORAD_CAT_ID><ELEMENT_SET_NO>999</ELEMENT_SET_NO><REV_AT_EPOCH>1502</REV_AT_EPOCH><BSTAR>.86161507E-3</BSTAR><MEAN_MOTION_DOT>.6359E-4</MEAN_MOTION_DOT><MEAN_MOTION_DDOT>0</MEAN_MOTION_DDOT></tleParameters></data></segment></body></omm>

</ndm>
